[{"OBJECT_NAME":"STARLINK-2726","OBJECT_ID":"2021-044AA","EPOCH":"2026-03-09T12:26:24.228672","MEAN_MOTION":15.06411714,"ECCENTRICITY":0.0001506,"INCLINATION":53.0553,"RA_OF_ASC_NODE":112.389,"ARG_OF_PERICENTER":91.3346,"MEAN_ANOMALY":268.7816,"EPHEMERIS_TYPE":0,"CLASSIFICATION_TYPE":"U","NORAD_CAT_ID":48662,"ELEMENT_SET_NO":999,"REV_AT_EPOCH":26382,"BSTAR":8.2584659e-5,"MEAN_MOTION_DOT":9.49e-6,"MEAN_MOTION_DDOT":0},{"OBJECT_NAME":"SL-8 DEB","OBJECT_ID":"1976-098E","EPOCH":"2026-03-09T08:07:12.416160","MEAN_MOTION":15.06605169,"ECCENTRICITY":0.00102283,"INCLINATION":74.028,"RA_OF_ASC_NODE":26.283,"ARG_OF_PERICENTER":218.296,"MEAN_ANOMALY":294.2383,"EPHEMERIS_TYPE":0,"CLASSIFICATION_TYPE":"U","NORAD_CAT_ID":18504,"ELEMENT_SET_NO":999,"REV_AT_EPOCH":18055,"BSTAR":0.0011587434,"MEAN_MOTION_DOT":0.00017191,"MEAN_MOTION_DDOT":0}]
